ONEWEB-0331             
1 49198U 21083N   25069.54304701  .00000140  00000+0  32126-3 0  9992
2 49198  87.9056  67.6407 0001613  91.3122 268.8195 13.18685513168901
ONEWEB-0333             
1 49199U 21083P   25069.90425389 -.00000149  00000+0 -44277-3 0  9990
2 49199  87.8915  52.3468 0002003  84.1240 276.0118 13.13503162170091
ONEWEB-0334             
1 49200U 21083Q   25069.81413697 -.00000030  00000+0 -10452-3 0  9999
2 49200  87.9323   6.6924 0002805  82.7043 277.4409 13.20775156175626
ONEWEB-0335             
1 49201U 21083R   25069.97538243 -.00000409  00000+0 -11552-2 0  9993
2 49201  87.8912  52.3209 0001714  90.8656 269.2670 13.13533154171405
ONEWEB-0336             
1 49202U 21083S   25069.87026753  .00000286  00000+0  74816-3 0  9995
2 49202  87.8912  52.3361 0001959  89.6605 270.4748 13.13395001170097
ONEWEB-0337             
1 49203U 21083T   25069.65164901 -.00000020  00000+0 -89745-4 0  9996
2 49203  87.8917  52.3786 0001705  82.9517 277.1806 13.13330099170063
ONEWEB-0338             
1 49204U 21083U   25069.86451806 -.00000028  00000+0 -10197-3 0  9995
2 49204  87.9329   6.6667 0002237  76.7900 283.3482 13.20771002175650
ONEWEB-0339             
1 49205U 21083V   25069.88915266 -.00000156  00000+0 -46185-3 0  9991
2 49205  87.8912  52.3204 0001882  80.6112 279.5230 13.13599207170073
